NORAD_CAT_ID,OBJECT_NAME,OBJECT_TYPE,EPOCH,MEAN_MOTION,ECCENTRICITY,INCLINATION,RA_OF_ASC_NODE,ARG_OF_PERICENTER,MEAN_ANOMALY,BSTAR,MEAN_MOTION_DOT,MEAN_MOTION_DDOT,TLE_LINE0,TLE_LINE1,TLE_LINE2,SEMIMAJOR_AXIS,PERIOD,APOGEE,PERIGEE,DECAYED
52371.0,STARLINK-3798,PAYLOAD,2023-01-18 00:27:22,15.08832107,0.0001675,53.2174,296.7273,81.0971,279.0211,0.00018323,2.629e-05,0.0,0 STARLINK-3798,1 52371U 22045AS  23018.01901281  .00002629  00000-0  18323-3 0  9996,2 52371  53.2174 296.7273 0001675  81.0971 279.0211 15.08832107 42804,6917.905,95.438,540.928,538.611,0.0
52371.0,STARLINK-3798,PAYLOAD,2023-01-18 11:35:04,15.08842256,0.0001776,53.2179,294.6465,80.5882,279.5311,0.00078516,0.00012231,0.0,0 STARLINK-3798,1 52371U 22045AS  23018.48269441  .00012231  00000-0  78516-3 0  9992,2 52371  53.2179 294.6465 0001776  80.5882 279.5311 15.08842256 42875,6917.8730000000005,95.437,540.967,538.51,0.0
52371.0,STARLINK-3798,PAYLOAD,2023-01-18 22:42:46,15.08860937,0.0001425,53.216,292.5634,88.8328,271.2827,0.00077909,0.0001214,0.0,0 STARLINK-3798,1 52371U 22045AS  23018.94636748  .00012140  00000-0  77909-3 0  9995,2 52371  53.2160 292.5634 0001425  88.8328 271.2827 15.08860937 42942,6917.816,95.436,540.6669999999999,538.696,0.0
52371.0,STARLINK-3798,PAYLOAD,2023-01-19 03:28:54,15.08877972,0.0001374,53.2166,291.6687,100.8605,259.2542,0.0011607,0.00018252,0.0,0 STARLINK-3798,1 52371U 22045AS  23019.14508036  .00018252  00000-0  11607-2 0  9998,2 52371  53.2166 291.6687 0001374 100.8605 259.2542 15.08877972 42972,6917.764,95.435,540.58,538.679,0.0
52371.0,STARLINK-3798,PAYLOAD,2023-01-19 11:25:51,15.08841123,0.0002493,53.2167,290.1851,76.16199999999999,283.9649,-7.8353e-05,-1.535e-05,0.0,0 STARLINK-3798,1 52371U 22045AS  23019.47629115 -.00001535  00000-0 -78353-4 0  9997,2 52371  53.2167 290.1851 0002493  76.1620 283.9649 15.08841123 43023,6917.877,95.437,541.467,538.0169999999999,0.0
52371.0,STARLINK-3798,PAYLOAD,2023-01-20 00:08:56,15.08856386,0.0001308,53.2165,287.8065,67.7017,292.4114,0.00078739,0.00012271,0.0,0 STARLINK-3798,1 52371U 22045AS  23020.00620496  .00012271  00000-0  78739-3 0  9995,2 52371  53.2165 287.8065 0001308  67.7017 292.4114 15.08856386 43109,6917.83,95.437,540.6,538.79,0.0
52371.0,STARLINK-3798,PAYLOAD,2023-01-20 22:24:20,15.08850016,0.0001137999999999,53.217,283.6406,75.5588,284.553,0.0015382,0.00024284,0.0,0 STARLINK-3798,1 52371U 22045AS  23020.93357230  .00024284  00000-0  15382-2 0  9991,2 52371  53.2170 283.6406 0001138  75.5588 284.5530 15.08850016 43242,6917.85,95.437,540.502,538.928,0.0
52371.0,STARLINK-3798,PAYLOAD,2023-01-21 03:10:30,15.08847021,0.0001250999999999,53.2171,282.7502,71.1404,288.9724,0.0007654,0.00011917,0.0,0 STARLINK-3798,1 52371U 22045AS  23021.13229235  .00011917  00000-0  76540-3 0  9990,2 52371  53.2171 282.7502 0001251  71.1404 288.9724 15.08847021 43273,6917.859,95.437,540.589,538.859,0.0
52371.0,STARLINK-3798,PAYLOAD,2023-01-22 03:01:16,15.0885158,0.0001354,53.2169,278.29,72.5785,287.5355,0.00046425,7.111e-05,0.0,0 STARLINK-3798,1 52371U 22045AS  23022.12588973  .00007111  00000-0  46425-3 0  9997,2 52371  53.2169 278.2900 0001354  72.5785 287.5355 15.08851580 43420,6917.845,95.437,540.6469999999999,538.773,0.0
52371.0,STARLINK-3798,PAYLOAD,2023-01-22 17:19:45,15.08838359,0.0002423999999999,53.2161,275.6122,106.6693,253.4565,3.9814e-05,3.45e-06,0.0,0 STARLINK-3798,1 52371U 22045AS  23022.72205292  .00000345  00000-0  39814-4 0  9990,2 52371  53.2161 275.6122 0002424 106.6693 253.4565 15.08838359 43519,6917.885,95.438,541.427,538.0740000000001,0.0
52371.0,STARLINK-3798,PAYLOAD,2023-01-24 02:42:51,15.08851162,0.000132,53.2172,269.3679,82.1909,277.9233,0.00052387,8.062e-05,0.0,0 STARLINK-3798,1 52371U 22045AS  23024.11309249  .00008062  00000-0  52387-3 0  9995,2 52371  53.2172 269.3679 0001320  82.1909 277.9233 15.08851162 43723,6917.846,95.437,540.624,538.798,0.0
52371.0,STARLINK-3798,PAYLOAD,2023-01-24 20:12:06,15.08841547,0.0002183,53.2157,266.0956,86.589,273.5352,0.0001648,2.336e-05,0.0,0 STARLINK-3798,1 52371U 22045AS  23024.84173916  .00002336  00000-0  16480-3 0  9997,2 52371  53.2157 266.0956 0002183  86.5890 273.5352 15.08841547 43835,6917.876,95.437,541.251,538.23,0.0
52371.0,STARLINK-3798,PAYLOAD,2023-01-25 08:55:11,15.08840679,0.0001403,53.2154,263.7168,77.4218,282.6931,4.9493e-05,5e-06,0.0,0 STARLINK-3798,1 52371U 22045AS  23025.37165582  .00000500  00000-0  49493-4 0  9998,2 52371  53.2154 263.7168 0001403  77.4218 282.6931 15.08840679 43916,6917.878000000001,95.438,540.714,538.773,0.0
52371.0,STARLINK-3798,PAYLOAD,2023-01-25 20:02:53,15.08841605,0.0001426999999999,53.2156,261.6396,83.6669,276.4485,-4.4044e-05,-9.89e-06,0.0,0 STARLINK-3798,1 52371U 22045AS  23025.83533786 -.00000989  00000-0 -44044-4 0  9994,2 52371  53.2156 261.6396 0001427  83.6669 276.4485 15.08841605 43985,6917.875,95.437,540.7280000000001,538.753,0.0
52371.0,STARLINK-3798,PAYLOAD,2023-01-26 00:49:02,15.08848465,0.0001514,53.2154,260.7466,99.3749,260.7415,-5.3207e-05,-1.135e-05,0.0,0 STARLINK-3798,1 52371U 22045AS  23026.03405378 -.00001135  00000-0 -53207-4 0  9997,2 52371  53.2154 260.7466 0001514  99.3749 260.7415 15.08848465 44016,6917.855,95.437,540.7669999999999,538.672,0.0
52371.0,STARLINK-3798,PAYLOAD,2023-01-26 21:29:03,15.08845758,0.0001431,53.2145,256.8807,84.5594,275.5561,0.00014804,2.069e-05,0.0,0 STARLINK-3798,1 52371U 22045AS  23026.89517614  .00002069  00000-0  14804-3 0  9992,2 52371  53.2145 256.8807 0001431  84.5594 275.5561 15.08845758 44145,6917.863,95.437,540.7180000000001,538.738,0.0
52371.0,STARLINK-3798,PAYLOAD,2023-01-27 10:12:09,15.0883065,0.0001512,53.2149,254.5016,90.609,269.5076,-1.5873e-05,-5.41e-06,0.0,0 STARLINK-3798,1 52371U 22045AS  23027.42510515 -.00000541  00000-0 -15873-4 0  9998,2 52371  53.2149 254.5016 0001512  90.6090 269.5076 15.08830650 44223,6917.909000000001,95.438,540.82,538.7280000000001,0.0
52371.0,STARLINK-3798,PAYLOAD,2023-01-27 21:19:51,15.08831027,0.0001411,53.2149,252.4207,83.0136,277.1016,2.0589e-05,4e-07,0.0,0 STARLINK-3798,1 52371U 22045AS  23027.88878732  .00000040  00000-0  20589-4 0  9998,2 52371  53.2149 252.4207 0001411  83.0136 277.1016 15.08831027 44292,6917.908,95.438,540.749,538.797,0.0
52371.0,STARLINK-3798,PAYLOAD,2023-01-28 13:13:42,15.08844006,0.0001445,53.2149,249.447,81.0276,279.088,0.00025118,3.712e-05,0.0,0 STARLINK-3798,1 52371U 22045AS  23028.55118565  .00003712  00000-0  25118-3 0  9995,2 52371  53.2149 249.4470 0001445  81.0276 279.0880 15.08844006 44392,6917.868,95.437,540.733,538.734,0.0
52371.0,STARLINK-3798,PAYLOAD,2023-01-28 21:10:38,15.08848611,0.0001457,53.2149,247.9593,83.4452,276.6706,0.00061962,9.589e-05,0.0,0 STARLINK-3798,1 52371U 22045AS  23028.88238631  .00009589  00000-0  61962-3 0  9993,2 52371  53.2149 247.9593 0001457  83.4452 276.6706 15.08848611 44448,6917.854,95.437,540.727,538.711,0.0
52371.0,STARLINK-3798,PAYLOAD,2023-01-29 14:39:52,15.08847877,0.0001447,53.2149,244.6882,84.194,275.9217,0.00024847,3.669e-05,0.0,0 STARLINK-3798,1 52371U 22045AS  23029.61102416  .00003669  00000-0  24847-3 0  9990,2 52371  53.2149 244.6882 0001447  84.1940 275.9217 15.08847877 44556,6917.856,95.437,540.722,538.72,0.0
52371.0,STARLINK-3798,PAYLOAD,2023-01-29 21:01:24,15.08846845,0.0001436,53.2151,243.4981,85.9163,274.1993,0.00015143,2.123e-05,0.0,0 STARLINK-3798,1 52371U 22045AS  23029.87598297  .00002123  00000-0  15143-3 0  9997,2 52371  53.2151 243.4981 0001436  85.9163 274.1993 15.08846845 44590,6917.859,95.437,540.718,538.731,0.0
52371.0,STARLINK-3798,PAYLOAD,2023-01-30 00:12:11,15.08847869,0.0001428,53.2151,242.9035,86.3634,273.7522,0.00019003,2.738e-05,0.0,0 STARLINK-3798,1 52371U 22045AS  23030.00846244  .00002738  00000-0  19003-3 0  9993,2 52371  53.2151 242.9035 0001428  86.3634 273.7522 15.08847869 44616,6917.856,95.437,540.709,538.733,0.0
52371.0,STARLINK-3798,PAYLOAD,2023-01-30 20:52:11,15.08842695,0.000143,53.2151,239.0377,87.2225,272.8931,2.4058e-05,9.5e-07,0.0,0 STARLINK-3798,1 52371U 22045AS  23030.86958133  .00000095  00000-0  24058-4 0  9999,2 52371  53.2151 239.0377 0001430  87.2225 272.8931 15.08842695 44741,6917.872,95.437,540.726,538.748,0.0
52371.0,STARLINK-3798,PAYLOAD,2023-01-31 12:46:03,15.08841708,0.0001389,53.2148,236.0645,90.332,269.7831,6.4877e-05,7.45e-06,0.0,0 STARLINK-3798,1 52371U 22045AS  23031.53198185  .00000745  00000-0  64877-4 0  9992,2 52371  53.2148 236.0645 0001389  90.3320 269.7831 15.08841708 44845,6917.875,95.437,540.701,538.779,0.0
52371.0,STARLINK-3798,PAYLOAD,2023-01-31 20:42:58,15.08843081,0.0001382,53.2148,234.5777,90.442,269.6731,6.7296e-05,7.83e-06,0.0,0 STARLINK-3798,1 52371U 22045AS  23031.86318052  .00000783  00000-0  67296-4 0  9995,2 52371  53.2148 234.5777 0001382  90.4420 269.6731 15.08843081 44898,6917.871,95.437,540.692,538.78,0.0
52371.0,STARLINK-3798,PAYLOAD,2023-02-01 06:15:17,15.08841085,0.0001378,53.2147,232.7936,89.918,270.197,3.8212e-05,3.2e-06,0.0,0 STARLINK-3798,1 52371U 22045AS  23032.26062114  .00000320  00000-0  38212-4 0  9998,2 52371  53.2147 232.7936 0001378  89.9180 270.1970 15.08841085 44956,6917.877,95.437,540.695,538.789,0.0
52371.0,STARLINK-3798,PAYLOAD,2023-02-01 14:12:14,15.08834389,0.0001364,53.2155,231.3066,92.1455,267.9693,5.0267e-05,5.12e-06,0.0,0 STARLINK-3798,1 52371U 22045AS  23032.59182878  .00000512  00000-0  50267-4 0  9991,2 52371  53.2155 231.3066 0001364  92.1455 267.9693 15.08834389 45002,6917.898,95.438,540.706,538.819,0.0
52371.0,STARLINK-3798,PAYLOAD,2023-02-01 15:47:37,15.08835447,0.0001372,53.2154,231.0094,91.0623,269.0526,5.2555e-05,5.48e-06,0.0,0 STARLINK-3798,1 52371U 22045AS  23032.65806796  .00000548  00000-0  52555-4 0  9991,2 52371  53.2154 231.0094 0001372  91.0623 269.0526 15.08835447 45018,6917.894,95.438,540.708,538.81,0.0
